[ {"name": "STARLINK-36073", "line1": "1 66844U 25280Z   26139.31326315  .00002971  00000+0  25667-3 0  9997", "line2": "2 66844  70.0004 156.4279 0003814 269.1185  90.9537 14.98328149 26621"}, {"name": "STARLINK-36068", "line1": "1 66845U 25280AA  26139.28403926  .00002481  00000+0  21556-3 0  9997", "line2": "2 66845  70.0002 156.3235 0004044 265.8529  94.2167 14.98340260 26659"}, {"name": "STARLINK-36055", "line1": "1 66846U 25280AB  26139.32578310  .00002551  00000+0  22147-3 0  9998", "line2": "2 66846  70.0004 156.4732 0003770 268.5816  91.4911 14.98332831 26661"}, {"name": "STARLINK-36061", "line1": "1 66847U 25280AC  26139.33413916  .00009875  00000+0  83365-3 0  9995", "line2": "2 66847  70.0004 156.5000 0003964 269.2470  90.8235 14.98354820 26653"}, {"name": "STARLINK-36091", "line1": "1 66848U 25281A   26139.18933258  .00009961  00000+0  37094-3 0  9990", "line2": "2 66848  43.0026 305.6730 0002197 268.0272  92.0328 15.27586992 25644"}, {"name": "STARLINK-36102", "line1": "1 66849U 25281B   26139.17906067  .00013351  00000+0  49364-3 0  9999", "line2": "2 66849  43.0023 305.5940 0001339 288.6341  71.4366 15.27590515 26961"}, {"name": "STARLINK-36105", "line1": "1 66850U 25281C   26139.17520286  .00013993  00000+0  51687-3 0  9999", "line2": "2 66850  43.0026 305.5614 0001399 279.7373  80.3320 15.27591823 26968"}, {"name": "STARLINK-36094", "line1": "1 66851U 25281D   26139.15721123  .00011673  00000+0  43289-3 0  9993", "line2": "2 66851  42.9990 305.4254 0000507 289.1963  70.8834 15.27589480 26966"}, {"name": "STARLINK-35992", "line1": "1 66852U 25281E   26139.15335844  .00015517  00000+0  57227-3 0  9993", "line2": "2 66852  43.0013 305.3938 0001588 272.0442  88.0228 15.27577509 26963"}, {"name": "STARLINK-35986", "line1": "1 66853U 25281F   26139.14949567  .00013764  00000+0  50855-3 0  9998", "line2": "2 66853  43.0005 305.3649 0001539 267.4896  92.5779 15.27594686 26967"}, {"name": "STARLINK-36087", "line1": "1 66854U 25281G   26139.14564215  .00010599  00000+0  39400-3 0  9998", "line2": "2 66854  43.0003 305.3366 0001557 263.9120  96.1555 15.27590003 26964"}, {"name": "STARLINK-36090", "line1": "1 66855U 25281H   26138.80843753  .00012326  00000+0  45670-3 0  9994", "line2": "2 66855  43.0019 307.1000 0000911 255.4675 104.6075 15.27578591 26916"}, {"name": "STARLINK-36072", "line1": "1 66856U 25281J   26138.80086508  .00010510  00000+0  39069-3 0  9990", "line2": "2 66856  43.0025 307.9125 0002235 260.9509  99.1090 15.27596068 26901"}, {"name": "STARLINK-36083", "line1": "1 66857U 25281K   26139.18547784  .00011600  00000+0  43027-3 0  9991", "line2": "2 66857  43.0032 305.6411 0001939 265.9150  94.1480 15.27588962 26968"}, {"name": "STARLINK-35118", "line1": "1 66858U 25281L   26139.17134155  .00017606  00000+0  64741-3 0  9993", "line2": "2 66858  43.0039 305.5303 0001609 268.5635  91.5032 15.27599194 26969"}, {"name": "STARLINK-35646", "line1": "1 66859U 25281M   26139.16748504  .00010812  00000+0  40168-3 0  9991", "line2": "2 66859  43.0014 305.4991 0001464 262.5550  97.5135 15.27592376 26969"}, {"name": "STARLINK-35987", "line1": "1 66860U 25281N   26139.15078084  .00010516  00000+0  39100-3 0  9996", "line2": "2 66860  43.0003 305.3707 0001658 266.5710  93.4952 15.27589603 26961"}, {"name": "STARLINK-35991", "line1": "1 66861U 25281P   26138.74947067  .00016187  00000+0  59633-3 0  9990", "line2": "2 66861  43.0015 307.5219 0001585 258.6071 101.4602 15.27587039 26905"}, {"name": "STARLINK-35974", "line1": "1 66862U 25281Q   26139.16363246  .00010417  00000+0  38743-3 0  9998", "line2": "2 66862  43.0002 305.4683 0001469 263.0856  96.9829 15.27589028 26961"}, {"name": "STARLINK-36134", "line1": "1 66863U 25281R   26138.80459131  .00016563  00000+0  61066-3 0  9990", "line2": "2 66863  43.0020 307.0690 0001608 277.0287  83.0382 15.27547154 26916"}, {"name": "STARLINK-36070", "line1": "1 66864U 25281S   26139.18290337  .00010547  00000+0  39224-3 0  9991", "line2": "2 66864  43.0051 305.6208 0001989 281.3765  78.6863 15.27580289 26966"}, {"name": "STARLINK-36117", "line1": "1 66865U 25281T   26138.81227319  .00028134  00000+0  10267-2 0  9997", "line2": "2 66865  43.0006 307.1293 0001537 253.4875 106.5808 15.27619940 26911"}, {"name": "STARLINK-36126", "line1": "1 66866U 25281U   26138.73676635  .00011195  00000+0  41569-3 0  9997", "line2": "2 66866  43.0041 308.2891 0002263 268.6968  91.3624 15.27582800 26882"}, {"name": "STARLINK-36101", "line1": "1 66867U 25281V   26139.19061109  .00012086  00000+0  44781-3 0  9992", "line2": "2 66867  43.0014 305.6746 0002921 271.0673  88.9844 15.27592710 26950"}, {"name": "STARLINK-36108", "line1": "1 66868U 25281W   26139.18676285  .00010885  00000+0  40439-3 0  9990", "line2": "2 66868  43.0034 305.6486 0001938 265.0632  94.9999 15.27587073 26953"}, {"name": "STARLINK-36092", "line1": "1 66869U 25281X   26139.18033765  .00010412  00000+0  38726-3 0  9993", "line2": "2 66869  43.0033 305.5960 0001646 261.1718  98.8948 15.27587586 26953"}, {"name": "STARLINK-36114", "line1": "1 66870U 25281Y   26139.17648292  .00011966  00000+0  44352-3 0  9998", "line2": "2 66870  42.9995 305.5700 0001399 268.5118  91.5574 15.27590061 26959"}, {"name": "STARLINK-36095", "line1": "1 66871U 25281Z   26139.17262069  .00014877  00000+0  54906-3 0  9993", "line2": "2 66871  42.9991 305.5361 0000905 281.6260  78.4490 15.27580536 26941"}, {"name": "STARLINK-36082", "line1": "1 66872U 25281AA  26139.16876896  .00009387  00000+0  35010-3 0  9997", "line2": "2 66872  43.0018 305.5054 0001312 266.5360  93.5341 15.27590423 26959"}, {"name": "STARLINK-36128", "line1": "1 66873U 25281AB  26139.15850167  .00012518  00000+0  46337-3 0  9994", "line2": "2 66873  43.0008 305.4258 0001933 285.2310  74.8328 15.27598692 26904"}, {"name": "STARLINK-36129", "line1": "1 66874U 25281AC  26139.16491657  .00009259  00000+0  34550-3 0  9993", "line2": "2 66874  43.0011 305.4753 0001468 263.5605  96.5080 15.27587934 26956"}, {"name": "STARLINK-36053", "line1": "1 66875U 25281AD  26139.15463728  .00010170  00000+0  37850-3 0  9991", "line2": "2 66875  43.0007 305.3948 0001288 263.3841  96.6864 15.27588220 26902"}, {"name": "STARLINK-35702", "line1": "1 66876U 25281AE  26139.16105421  .00009729  00000+0  36242-3 0  9998", "line2": "2 66876  43.0045 305.4445 0001186 273.6107  86.4609 15.27596569 26958"}, {"name": "STARLINK-35866", "line1": "1 66878U 25283A   26139.08617719  .00017544  00000+0  60285-3 0  9999", "line2": "2 66878  53.1603  57.0792 0001066 107.0341 253.0776 15.30211232 26620"}, {"name": "STARLINK-35749", "line1": "1 66879U 25283B   26139.07457023  .00013070  00000+0  45242-3 0  9995", "line2": "2 66879  53.1595  57.0061 0001305 105.7289 254.3856 15.30215092 26623"}, {"name": "STARLINK-35844", "line1": "1 66880U 25283C   26139.14516163  .00013145  00000+0  45505-3 0  9991", "line2": "2 66880  53.1593  56.7374 0001212  89.5831 270.5309 15.30206813 26630"}, {"name": "STARLINK-35860", "line1": "1 66881U 25283D   26139.06823756  .00010830  00000+0  37713-3 0  9992", "line2": "2 66881  53.1589  56.9637 0001259  68.3633 291.7502 15.30211105 26625"}, {"name": "STARLINK-35912", "line1": "1 66882U 25283E   26139.07725257  .00018884  00000+0  56862-3 0  9994", "line2": "2 66882  53.1596  57.0294 0001201  89.6205 270.4935 15.34399853 26628"}, {"name": "STARLINK-35947", "line1": "1 66883U 25283F   26139.15080027  .00020966  00000+0  62978-3 0  9992", "line2": "2 66883  53.1606  56.7738 0000694 105.3862 254.7217 15.34407067 26658"}, {"name": "STARLINK-36057", "line1": "1 66884U 25283G   26139.17998311  .00009445  00000+0  33056-3 0  9993", "line2": "2 66884  53.1612  56.9549 0001116  89.4275 270.6854 15.30206043 26637"}, {"name": "STARLINK-35954", "line1": "1 66885U 25283H   26139.03946856  .00020496  00000+0  61609-3 0  9990", "line2": "2 66885  53.1629  57.5005 0001033  88.1970 271.9151 15.34400113 26616"}, {"name": "STARLINK-35900", "line1": "1 66886U 25283J   26139.09615354  .00289636  00000+0  83411-2 0  9990", "line2": "2 66886  53.1608  57.1419 0001290 106.7679 253.3465 15.34082238 26624"}, {"name": "STARLINK-35925", "line1": "1 66887U 25283K   26139.03880224  .00007887  00000+0  27809-3 0  9991", "line2": "2 66887  53.1660  57.4949 0000921  72.3406 287.7696 15.30203667 26613"}, {"name": "STARLINK-35919", "line1": "1 66888U 25283L   26139.03563665  .00009686  00000+0  33865-3 0  9997", "line2": "2 66888  53.1618  57.4697 0001566 103.9417 256.1758 15.30207215 26618"}, {"name": "STARLINK-35852", "line1": "1 66889U 25283M   26139.25001157  .00044339  00000+0  13517-2 0  9990", "line2": "2 66889  53.1605  56.3888 0001178  66.9705  80.0939 15.33544206  5824"}, {"name": "STARLINK-35885", "line1": "1 66890U 25283N   26139.02930480  .00009427  00000+0  32992-3 0  9995", "line2": "2 66890  53.1607  57.4287 0001535 117.1103 243.0055 15.30209222 26614"}, {"name": "STARLINK-35855", "line1": "1 66891U 25283P   26139.09146902  .00019230  00000+0  65923-3 0  9994", "line2": "2 66891  53.1612  57.1102 0001704  70.5029 289.6156 15.30223001 26621"}, {"name": "STARLINK-35883", "line1": "1 66892U 25283Q   26139.08828706  .00014353  00000+0  49572-3 0  9996", "line2": "2 66892  53.1600  57.0914 0001311  87.3497 272.7653 15.30204887 26624"}, {"name": "STARLINK-36033", "line1": "1 66893U 25283R   26139.06518353  .00008695  00000+0  30528-3 0  9992", "line2": "2 66893  53.1597  57.6575 0001057  94.0828 266.0294 15.30205074 26614"}, {"name": "STARLINK-35718", "line1": "1 66894U 25283S   26139.14726768  .00018981  00000+0  65107-3 0  9993", "line2": "2 66894  53.1606  56.7475 0000908 118.9740 241.1352 15.30213784 26636"}, {"name": "STARLINK-35971", "line1": "1 66895U 25283T   26139.09197955  .00019802  00000+0  59556-3 0  9992", "line2": "2 66895  53.1608  57.1144 0001202  89.7837 270.3303 15.34405433 26624"}, {"name": "STARLINK-35791", "line1": "1 66896U 25283U   26139.07140308  .00014272  00000+0  49279-3 0  9998", "line2": "2 66896  53.1612  56.9839 0001464 100.1441 259.9726 15.30217961 26622"}]